OBJECT_NAME,OBJECT_ID,EPOCH,MEAN_MOTION,ECCENTRICITY,INCLINATION,RA_OF_ASC_NODE,ARG_OF_PERICENTER,MEAN_ANOMALY,EPHEMERIS_TYPE,CLASSIFICATION_TYPE,NORAD_CAT_ID,ELEMENT_SET_NO,REV_AT_EPOCH,BSTAR,MEAN_MOTION_DOT,MEAN_MOTION_DDOT
SHARJAHSAT-1,2023-001CZ,2026-07-17T06:26:36.489696,15.50167459,.00045592,97.3145,267.4732,14.1574,345.9805,0,U,55104,999,19715,.19827244E-3,.11087E-3,0
HORUS 1,2023-025A,2026-07-17T07:14:44.610144,15.23550549,.00029715,97.3451,272.2635,110.2094,249.9463,0,U,55690,999,18863,.12545455E-3,.2928E-4,0
HORUS 2,2023-032A,2026-07-17T06:31:43.436064,15.23356263,.00012234,97.3523,273.0672,136.8670,223.2663,0,U,55844,999,18606,.12114533E-3,.2809E-4,0
GLOBAL-19,2023-041B,2026-07-16T23:06:46.821888,15.38711918,.00098948,42.0020,28.1568,229.4763,130.5216,0,U,55982,999,18651,.21046389E-3,.7985E-4,0
ION SCV-010,2023-054Q,2026-07-17T02:53:33.674496,15.26434574,.00146415,97.3737,87.2385,98.3338,261.9561,0,U,56192,999,18076,.97642125E-4,.2477E-4,0
TELEOS-2,2023-057C,2026-07-16T14:46:55.196832,14.96371989,.00007792,9.9895,349.9077,283.1804,76.8323,0,U,56310,999,17721,-.25889684E-3,-.2323E-4,0
SNIPE 4,2023-072B,2026-07-17T07:21:10.648800,15.43448237,.00049722,97.5223,45.2881,197.2765,162.8314,0,U,56744,999,17475,.28797946E-3,.12803E-3,0
SNIPE 2,2023-072C,2026-07-17T07:44:39.886368,15.48298713,.00033977,97.5211,48.5655,223.9842,136.1138,0,U,56745,999,17490,.31159094E-3,.16372E-3,0
2023-072G,2023-072G,2026-07-17T07:31:28.638624,15.52212516,.00026394,97.4869,47.3962,196.6926,163.4239,0,U,56749,999,17513,.31317242E-3,.18903E-3,0
GEISAT PRECURSOR,2023-084C,2026-07-17T08:08:01.375584,15.35027567,.00046473,97.6262,340.2988,221.0022,139.0871,0,U,56934,999,17215,.11579141E-3,.385E-4,0
BLACKJACK ACES-3,2023-084U,2026-07-16T22:52:18.759360,15.18797849,.00008737,97.6250,333.3808,215.6785,144.4391,0,U,56950,999,17168,.12481124E-3,.2526E-4,0
BLACKJACK ACES-2,2023-084Z,2026-07-16T23:00:58.044096,15.18748061,.00017331,97.6248,333.4705,136.8741,223.2628,0,U,56955,999,17169,.15896092E-3,.3231E-4,0
BLACKJACK ACES-1,2023-084AA,2026-07-16T22:42:55.650816,15.18752561,.00020303,97.6239,333.2297,117.0761,243.0680,0,U,56956,999,12141,.13783045E-3,.2793E-4,0
ION SCV-011,2023-084AB,2026-07-17T02:31:28.022880,15.29107570,.00058841,98.1378,28.1627,297.8356,62.2285,0,U,56957,999,17038,.99638443E-4,.2727E-4,0
GHOST-3,2023-084AC,2026-07-16T22:56:48.763680,15.48829186,.00068711,97.6249,348.1513,179.1341,180.9922,0,U,56958,999,17262,.22601663E-3,.12071E-3,0
AFR-1,2023-084AJ,2026-07-17T08:13:51.036384,15.28787124,.00094127,97.6314,335.7710,226.5169,133.5289,0,U,56964,999,17183,.87719317E-4,.2377E-4,0
METEOR-M2 3,2023-091A,2026-07-17T07:28:10.257312,14.24049026,.00051402,98.6067,252.6705,85.5344,274.6423,0,U,57166,999,15880,.11755191E-4,-.16E-6,0
UMKA 1 (RS40S),2023-091G,2026-07-17T05:24:12.502080,15.21133696,.00128377,97.5031,256.8104,22.7170,337.4631,0,U,57172,999,16857,.13596105E-3,.2961E-4,0
2023-091H,2023-091H,2026-07-17T06:54:53.583552,15.29241445,.00093633,97.5029,261.7342,18.0988,342.0584,0,U,57173,999,16890,.20484043E-3,.574E-4,0
2023-091J,2023-091J,2026-07-17T06:13:58.037664,15.14119255,.00142581,97.5041,250.9280,49.6253,310.6220,0,U,57174,999,16818,.10140532E-3,.1785E-4,0
CUBEBEL 2 (EU11S),2023-091K,2026-07-17T06:40:03.925344,15.29852564,.00093185,97.5031,261.7761,19.4437,340.7156,0,U,57175,999,16890,.22982845E-3,.6574E-4,0
SITRO-AIS 5 (KATYS),2023-091L,2026-07-17T06:56:54.585024,15.30091577,.00104336,97.5041,262.4865,5.0255,355.1088,0,U,57176,999,16894,.21248921E-3,.6118E-4,0
ZORKIY-2M 1,2023-091M,2026-07-17T06:36:13.920768,15.21264563,.00131886,97.5071,257.1496,19.3307,340.8427,0,U,57177,999,16857,.14942211E-3,.3275E-4,0
CUBESX-HSE 3 (RS42S),2023-091N,2026-07-17T05:27:23.971392,15.31913775,.00094543,97.5073,264.2069,354.5415,5.5721,0,U,57178,999,16902,.2216746E-3,.6759E-4,0
MONITOR-3 (RS58S),2023-091Q,2026-07-17T04:31:38.250624,15.28394908,.00107678,97.5065,261.8641,2.6877,357.4418,0,U,57180,999,16887,.20056338E-3,.5476E-4,0
MONITOR-4 (RS57S),2023-091S,2026-07-17T05:33:20.470752,15.28482424,.00107692,97.5058,261.8802,2.7642,357.3655,0,U,57182,999,16888,.195978E-3,.5363E-4,0
MONITOR-2 (RS39S),2023-091U,2026-07-17T06:50:01.215456,15.19164858,.00111683,97.5053,256.3752,16.9779,343.1827,0,U,57184,999,16852,.11576238E-3,.2368E-4,0
SVYATOBOR 1 (RS60S),2023-091X,2026-07-17T06:30:39.647808,15.27082819,.00085404,97.5072,262.2622,357.1942,2.9248,0,U,57187,999,16890,.17661831E-3,.462E-4,0
HORS 1,2023-091Y,2026-07-17T06:06:38.400768,15.27202683,.00079921,97.5048,262.0039,357.5257,2.5941,0,U,57188,999,16890,.18527482E-3,.4868E-4,0
VIZARD-METEO (RS38S),2023-091Z,2026-07-17T05:39:03.377664,15.36913044,.00054987,97.5074,268.3405,331.0314,29.0624,0,U,57189,999,16930,.24952664E-3,.8926E-4,0
