SHARJAHSAT-1            
1 55104U 23001CZ  26198.26847789  .00011087  00000+0  19827-3 0  9994
2 55104  97.3145 267.4732 0004559  14.1574 345.9805 15.50167459197152
HORUS 1                 
1 55690U 23025A   26198.30190521  .00002928  00000+0  12545-3 0  9994
2 55690  97.3451 272.2635 0002971 110.2094 249.9463 15.23550549188631
HORUS 2                 
1 55844U 23032A   26198.27203051  .00002809  00000+0  12115-3 0  9993
2 55844  97.3523 273.0672 0001223 136.8670 223.2663 15.23356263186064
GLOBAL-19               
1 55982U 23041B   26197.96304192  .00007985  00000+0  21046-3 0  9992
2 55982  42.0020  28.1568 0009894 229.4763 130.5216 15.38711918186515
ION SCV-010             
1 56192U 23054Q   26198.12052864  .00002477  00000+0  97642-4 0  9992
2 56192  97.3737  87.2385 0014641  98.3338 261.9561 15.26434574180767
TELEOS-2                
1 56310U 23057C   26197.61591663 -.00002323  00000+0 -25890-3 0  9992
2 56310   9.9895 349.9077 0000779 283.1804  76.8323 14.96371989177219
SNIPE 4                 
1 56744U 23072B   26198.30637325  .00012803  00000+0  28798-3 0  9995
2 56744  97.5223  45.2881 0004972 197.2765 162.8314 15.43448237174753
SNIPE 2                 
1 56745U 23072C   26198.32268387  .00016372  00000+0  31159-3 0  9996
2 56745  97.5211  48.5655 0003397 223.9842 136.1138 15.48298713174901
2023-072G               
1 56749U 23072G   26198.31352591  .00018903  00000+0  31317-3 0  9998
2 56749  97.4869  47.3962 0002639 196.6926 163.4239 15.52212516175131
GEISAT PRECURSOR        
1 56934U 23084C   26198.33890481  .00003850  00000+0  11579-3 0  9997
2 56934  97.6262 340.2988 0004647 221.0022 139.0871 15.35027567172151
BLACKJACK ACES-3        
1 56950U 23084U   26197.95299490  .00002526  00000+0  12481-3 0  9997
2 56950  97.6250 333.3808 0000873 215.6785 144.4391 15.18797849171684
BLACKJACK ACES-2        
1 56955U 23084Z   26197.95900514  .00003231  00000+0  15896-3 0  9995
2 56955  97.6248 333.4705 0001733 136.8741 223.2628 15.18748061171697
BLACKJACK ACES-1        
1 56956U 23084AA  26197.94647744  .00002793  00000+0  13783-3 0  9993
2 56956  97.6239 333.2297 0002030 117.0761 243.0680 15.18752561121419
ION SCV-011             
1 56957U 23084AB  26198.10518545  .00002727  00000+0  99638-4 0  9990
2 56957  98.1378  28.1627 0005884 297.8356  62.2285 15.29107570170382
GHOST-3                 
1 56958U 23084AC  26197.95611995  .00012071  00000+0  22602-3 0  9995
2 56958  97.6249 348.1513 0006871 179.1341 180.9922 15.48829186172626
AFR-1                   
1 56964U 23084AJ  26198.34295181  .00002377  00000+0  87719-4 0  9990
2 56964  97.6314 335.7710 0009412 226.5169 133.5289 15.28787124171831
METEOR-M2 3             
1 57166U 23091A   26198.31122983 -.00000016  00000+0  11755-4 0  9995
2 57166  98.6067 252.6705 0005140  85.5344 274.6423 14.24049026158801
UMKA 1 (RS40S)          
1 57172U 23091G   26198.22514470  .00002961  00000+0  13596-3 0  9992
2 57172  97.5031 256.8104 0012837  22.7170 337.4631 15.21133696168576
2023-091H               
1 57173U 23091H   26198.28812018  .00005740  00000+0  20484-3 0  9990
2 57173  97.5029 261.7342 0009363  18.0988 342.0584 15.29241445168904
2023-091J               
1 57174U 23091J   26198.25969951  .00001785  00000+0  10141-3 0  9991
2 57174  97.5041 250.9280 0014258  49.6253 310.6220 15.14119255168189
CUBEBEL 2 (EU11S)       
1 57175U 23091K   26198.27782321  .00006574  00000+0  22983-3 0  9996
2 57175  97.5031 261.7761 0009318  19.4437 340.7156 15.29852564168908
SITRO-AIS 5 (KATYS)     
1 57176U 23091L   26198.28952066  .00006118  00000+0  21249-3 0  9991
2 57176  97.5041 262.4865 0010433   5.0255 355.1088 15.30091577168941
ZORKIY-2M 1             
1 57177U 23091M   26198.27516112  .00003275  00000+0  14942-3 0  9992
2 57177  97.5071 257.1496 0013188  19.3307 340.8427 15.21264563168576
CUBESX-HSE 3 (RS42S)    
1 57178U 23091N   26198.22736078  .00006759  00000+0  22167-3 0  9991
2 57178  97.5073 264.2069 0009454 354.5415   5.5721 15.31913775169029
MONITOR-3 (RS58S)       
1 57180U 23091Q   26198.18863716  .00005476  00000+0  20056-3 0  9999
2 57180  97.5065 261.8641 0010767   2.6877 357.4418 15.28394908168875
MONITOR-4 (RS57S)       
1 57182U 23091S   26198.23148693  .00005363  00000+0  19598-3 0  9991
2 57182  97.5058 261.8802 0010769   2.7642 357.3655 15.28482424168885
MONITOR-2 (RS39S)       
1 57184U 23091U   26198.28473629  .00002368  00000+0  11576-3 0  9998
2 57184  97.5053 256.3752 0011168  16.9779 343.1827 15.19164858168520
SVYATOBOR 1 (RS60S)     
1 57187U 23091X   26198.27129222  .00004620  00000+0  17662-3 0  9992
2 57187  97.5072 262.2622 0008540 357.1942   2.9248 15.27082819168902
HORS 1                  
1 57188U 23091Y   26198.25461112  .00004868  00000+0  18527-3 0  9993
2 57188  97.5048 262.0039 0007992 357.5257   2.5941 15.27202683168908
VIZARD-METEO (RS38S)    
1 57189U 23091Z   26198.23545576  .00008926  00000+0  24953-3 0  9998
2 57189  97.5074 268.3405 0005498 331.0314  29.0624 15.36913044169301
